{
  "type": "FeatureCollection",
  "features": [
    {
      "type": "Feature",
      "properties": {
        "norad_id": 44231,
        "name": "BEIDOU-2 G8 (C01)",
        "group": "gnss",
        "lat": -0.9732033212414639,
        "lon": -70.94821009520888,
        "alt_km": 35760.15617412852,
        "timestamp": "2025-12-20T03:42:47.636663+00:00",
        "meta_object_name": "BEIDOU-2 G8 (C01)",
        "meta_object_id": "2019-027A",
        "meta_epoch": "2025-12-19T12:14:23.449632",
        "meta_mean_motion": 1.00276563,
        "meta_eccentricity": 0.0008196,
        "meta_inclination": 1.6785,
        "meta_ra_of_asc_node": 74.7229,
        "meta_arg_of_pericenter": 258.5641,
        "meta_mean_anomaly": 83.1013,
        "meta_ephemeris_type": 0,
        "meta_classification_type": "U",
        "meta_norad_cat_id": 44231,
        "meta_element_set_no": 999,
        "meta_rev_at_epoch": 2427,
        "meta_bstar": 0,
        "meta_mean_motion_dot": -2.24e-06,
        "meta_mean_motion_ddot": 0,
        "tle_line1": "1 44231U 19027A   25353.50999363 -.00000224  00000+0  00000+0 0  9992",
        "tle_line2": "2 44231   1.6785  74.7229 0008196 258.5641  83.1013  1.00276563 24270"
      },
      "geometry": {
        "type": "Point",
        "coordinates": [
          -70.94821009520888,
          -0.9732033212414639
        ]
      }
    },
    {
      "type": "Feature",
      "properties": {
        "norad_id": 44299,
        "name": "COSMOS 2534 (758)",
        "group": "gnss",
        "lat": -42.71675155835654,
        "lon": 172.31693396963175,
        "alt_km": 19115.20487386263,
        "timestamp": "2025-12-20T03:42:47.636677+00:00",
        "meta_object_name": "COSMOS 2534 (758)",
        "meta_object_id": "2019-030A",
        "meta_epoch": "2025-12-18T18:30:09.690336",
        "meta_mean_motion": 2.13102412,
        "meta_eccentricity": 0.0008748,
        "meta_inclination": 64.3658,
        "meta_ra_of_asc_node": 198.6898,
        "meta_arg_of_pericenter": 284.2192,
        "meta_mean_anomaly": 45.4012,
        "meta_ephemeris_type": 0,
        "meta_classification_type": "U",
        "meta_norad_cat_id": 44299,
        "meta_element_set_no": 999,
        "meta_rev_at_epoch": 5107,
        "meta_bstar": 0,
        "meta_mean_motion_dot": 1.08e-06,
        "meta_mean_motion_ddot": 0,
        "tle_line1": "1 44299U 19030A   25352.77094549  .00000108  00000+0  00000+0 0  9990",
        "tle_line2": "2 44299  64.3658 198.6898 0008748 284.2192  45.4012  2.13102412 51071"
      },
      "geometry": {
        "type": "Point",
        "coordinates": [
          172.31693396963175,
          -42.71675155835654
        ]
      }
    },
    {
      "type": "Feature",
      "properties": {
        "norad_id": 44337,
        "name": "BEIDOU-3 IGSO-2 (C39)",
        "group": "gnss",
        "lat": 53.01607515068789,
        "lon": -87.08730066048645,
        "alt_km": 35804.998251156205,
        "timestamp": "2025-12-20T03:42:47.636688+00:00",
        "meta_object_name": "BEIDOU-3 IGSO-2 (C39)",
        "meta_object_id": "2019-035A",
        "meta_epoch": "2025-12-19T20:41:01.781088",
        "meta_mean_motion": 1.00269267,
        "meta_eccentricity": 0.0037549,
        "meta_inclination": 55.228,
        "meta_ra_of_asc_node": 160.4388,
        "meta_arg_of_pericenter": 202.2301,
        "meta_mean_anomaly": 155.7105,
        "meta_ephemeris_type": 0,
        "meta_classification_type": "U",
        "meta_norad_cat_id": 44337,
        "meta_element_set_no": 999,
        "meta_rev_at_epoch": 2386,
        "meta_bstar": 0,
        "meta_mean_motion_dot": -6.2e-07,
        "meta_mean_motion_ddot": 0,
        "tle_line1": "1 44337U 19035A   25353.86182617 -.00000062  00000+0  00000+0 0  9993",
        "tle_line2": "2 44337  55.2280 160.4388 0037549 202.2301 155.7105  1.00269267 23869"
      },
      "geometry": {
        "type": "Point",
        "coordinates": [
          -87.08730066048645,
          53.01607515068789
        ]
      }
    },
    {
      "type": "Feature",
      "properties": {
        "norad_id": 44506,
        "name": "GPS BIII-2  (PRN 18)",
        "group": "gnss",
        "lat": -4.384594618625641,
        "lon": -24.751813823223078,
        "alt_km": 20322.56674041183,
        "timestamp": "2025-12-20T03:42:47.636703+00:00",
        "meta_object_name": "GPS BIII-2  (PRN 18)",
        "meta_object_id": "2019-056A",
        "meta_epoch": "2025-12-19T09:43:49.309248",
        "meta_mean_motion": 2.00566645,
        "meta_eccentricity": 0.0057727,
        "meta_inclination": 55.7191,
        "meta_ra_of_asc_node": 338.2882,
        "meta_arg_of_pericenter": 198.5275,
        "meta_mean_anomaly": 334.872,
        "meta_ephemeris_type": 0,
        "meta_classification_type": "U",
        "meta_norad_cat_id": 44506,
        "meta_element_set_no": 999,
        "meta_rev_at_epoch": 4646,
        "meta_bstar": 0,
        "meta_mean_motion_dot": -8.1e-07,
        "meta_mean_motion_ddot": 0,
        "tle_line1": "1 44506U 19056A   25353.40543182 -.00000081  00000+0  00000+0 0  9993",
        "tle_line2": "2 44506  55.7191 338.2882 0057727 198.5275 334.8720  2.00566645 46469"
      },
      "geometry": {
        "type": "Point",
        "coordinates": [
          -24.751813823223078,
          -4.384594618625641
        ]
      }
    },
    {
      "type": "Feature",
      "properties": {
        "norad_id": 44542,
        "name": "BEIDOU-3 M24 (C46)",
        "group": "gnss",
        "lat": 7.06187746898022,
        "lon": 3.677121701613215,
        "alt_km": 21549.73735825474,
        "timestamp": "2025-12-20T03:42:47.636716+00:00",
        "meta_object_name": "BEIDOU-3 M24 (C46)",
        "meta_object_id": "2019-061A",
        "meta_epoch": "2025-12-19T08:42:00.476928",
        "meta_mean_motion": 1.86229413,
        "meta_eccentricity": 0.0009604,
        "meta_inclination": 54.4002,
        "meta_ra_of_asc_node": 188.7925,
        "meta_arg_of_pericenter": 25.2605,
        "meta_mean_anomaly": 334.8488,
        "meta_ephemeris_type": 0,
        "meta_classification_type": "U",
        "meta_norad_cat_id": 44542,
        "meta_element_set_no": 999,
        "meta_rev_at_epoch": 4244,
        "meta_bstar": 0,
        "meta_mean_motion_dot": 1.03e-06,
        "meta_mean_motion_ddot": 0,
        "tle_line1": "1 44542U 19061A   25353.36250552  .00000103  00000+0  00000+0 0  9994",
        "tle_line2": "2 44542  54.4002 188.7925 0009604  25.2605 334.8488  1.86229413 42443"
      },
      "geometry": {
        "type": "Point",
        "coordinates": [
          3.677121701613215,
          7.06187746898022
        ]
      }
    },
    {
      "type": "Feature",
      "properties": {
        "norad_id": 44543,
        "name": "BEIDOU-3 M23 (C45)",
        "group": "gnss",
        "lat": 53.927519535041846,
        "lon": -91.50621663195335,
        "alt_km": 21513.361386387314,
        "timestamp": "2025-12-20T03:42:47.636728+00:00",
        "meta_object_name": "BEIDOU-3 M23 (C45)",
        "meta_object_id": "2019-061B",
        "meta_epoch": "2025-12-19T04:54:38.810304",
        "meta_mean_motion": 1.86227724,
        "meta_eccentricity": 0.0006055,
        "meta_inclination": 54.3992,
        "meta_ra_of_asc_node": 188.7663,
        "meta_arg_of_pericenter": 24.9207,
        "meta_mean_anomaly": 142.055,
        "meta_ephemeris_type": 0,
        "meta_classification_type": "U",
        "meta_norad_cat_id": 44543,
        "meta_element_set_no": 999,
        "meta_rev_at_epoch": 4244,
        "meta_bstar": 0,
        "meta_mean_motion_dot": 1.04e-06,
        "meta_mean_motion_ddot": 0,
        "tle_line1": "1 44543U 19061B   25353.20461586  .00000104  00000+0  00000+0 0  9990",
        "tle_line2": "2 44543  54.3992 188.7663 0006055  24.9207 142.0550  1.86227724 42443"
      },
      "geometry": {
        "type": "Point",
        "coordinates": [
          -91.50621663195335,
          53.927519535041846
        ]
      }
    },
    {
      "type": "Feature",
      "properties": {
        "norad_id": 44624,
        "name": "EUTELSAT 5 WEST B (EGNOS/PRN 121)",
        "group": "gnss",
        "lat": 0.02994119541431332,
        "lon": 139.66036584561007,
        "alt_km": 35794.235445748534,
        "timestamp": "2025-12-20T03:42:47.636739+00:00",
        "meta_object_name": "EUTELSAT 5 WEST B (EGNOS/PRN 121)",
        "meta_object_id": "2019-067A",
        "meta_epoch": "2025-12-19T18:22:30.045792",
        "meta_mean_motion": 1.0027128,
        "meta_eccentricity": 0.0002994,
        "meta_inclination": 0.0681,
        "meta_ra_of_asc_node": 333.6647,
        "meta_arg_of_pericenter": 295.2265,
        "meta_mean_anomaly": 90.35,
        "meta_ephemeris_type": 0,
        "meta_classification_type": "U",
        "meta_norad_cat_id": 44624,
        "meta_element_set_no": 999,
        "meta_rev_at_epoch": 2263,
        "meta_bstar": 0,
        "meta_mean_motion_dot": -1.8e-07,
        "meta_mean_motion_ddot": 0,
        "tle_line1": "1 44624U 19067A   25353.76562553 -.00000018  00000+0  00000+0 0  9998",
        "tle_line2": "2 44624   0.0681 333.6647 0002994 295.2265  90.3500  1.00271280 22635"
      },
      "geometry": {
        "type": "Point",
        "coordinates": [
          139.66036584561007,
          0.02994119541431332
        ]
      }
    }
  ]
}